{
  "type": "FeatureCollection",
  "features": [
    {
      "type": "Feature",
      "properties": {
        "norad_id": 41877,
        "name": "RESOURCESAT-2A",
        "group": "resource",
        "lat": 81.13877937471244,
        "lon": -51.4928747051917,
        "alt_km": 813.1988795447951,
        "timestamp": "2025-12-02T07:10:08.766754+00:00",
        "meta_object_name": "RESOURCESAT-2A",
        "meta_object_id": "2016-074A",
        "meta_epoch": "2025-12-01T20:36:23.764032",
        "meta_mean_motion": 14.21591769,
        "meta_eccentricity": 0.0001193,
        "meta_inclination": 98.7769,
        "meta_ra_of_asc_node": 45.7774,
        "meta_arg_of_pericenter": 309.591,
        "meta_mean_anomaly": 50.5161,
        "meta_ephemeris_type": 0,
        "meta_classification_type": "U",
        "meta_norad_cat_id": 41877,
        "meta_element_set_no": 999,
        "meta_rev_at_epoch": 46626,
        "meta_bstar": 0.00010679,
        "meta_mean_motion_dot": 1.9e-06,
        "meta_mean_motion_ddot": 0,
        "tle_line1": "1 41877U 16074A   25335.85860838  .00000190  00000+0  10679-3 0  9994",
        "tle_line2": "2 41877  98.7769  45.7774 0001193 309.5910  50.5161 14.21591769466267"
      },
      "geometry": {
        "type": "Point",
        "coordinates": [
          -51.4928747051917,
          81.13877937471244
        ]
      }
    },
    {
      "type": "Feature",
      "properties": {
        "norad_id": 41948,
        "name": "CARTOSAT-2D",
        "group": "resource",
        "lat": 33.77459561933174,
        "lon": 28.939683591682773,
        "alt_km": 509.0587860235137,
        "timestamp": "2025-12-02T07:10:08.766765+00:00",
        "meta_object_name": "CARTOSAT-2D",
        "meta_object_id": "2017-008A",
        "meta_epoch": "2025-12-01T21:32:07.372320",
        "meta_mean_motion": 15.19321418,
        "meta_eccentricity": 0.0004786,
        "meta_inclination": 97.4405,
        "meta_ra_of_asc_node": 33.5585,
        "meta_arg_of_pericenter": 203.7321,
        "meta_mean_anomaly": 156.3693,
        "meta_ephemeris_type": 0,
        "meta_classification_type": "U",
        "meta_norad_cat_id": 41948,
        "meta_element_set_no": 999,
        "meta_rev_at_epoch": 48762,
        "meta_bstar": 1.5054e-06,
        "meta_mean_motion_dot": -3.6e-07,
        "meta_mean_motion_ddot": 0,
        "tle_line1": "1 41948U 17008A   25335.89730755 -.00000036  00000+0  15054-5 0  9993",
        "tle_line2": "2 41948  97.4405  33.5585 0004786 203.7321 156.3693 15.19321418487624"
      },
      "geometry": {
        "type": "Point",
        "coordinates": [
          28.939683591682773,
          33.77459561933174
        ]
      }
    },
    {
      "type": "Feature",
      "properties": {
        "norad_id": 42063,
        "name": "SENTINEL-2B",
        "group": "resource",
        "lat": 71.82560739137193,
        "lon": 21.536104633933036,
        "alt_km": 781.3482306450906,
        "timestamp": "2025-12-02T07:10:08.766776+00:00",
        "meta_object_name": "SENTINEL-2B",
        "meta_object_id": "2017-013A",
        "meta_epoch": "2025-12-01T20:45:17.841312",
        "meta_mean_motion": 14.30808731,
        "meta_eccentricity": 0.000112,
        "meta_inclination": 98.5728,
        "meta_ra_of_asc_node": 48.4629,
        "meta_arg_of_pericenter": 98.7287,
        "meta_mean_anomaly": 261.4023,
        "meta_ephemeris_type": 0,
        "meta_classification_type": "U",
        "meta_norad_cat_id": 42063,
        "meta_element_set_no": 999,
        "meta_rev_at_epoch": 45642,
        "meta_bstar": 8.0174e-05,
        "meta_mean_motion_dot": 1.66e-06,
        "meta_mean_motion_ddot": 0,
        "tle_line1": "1 42063U 17013A   25335.86478983  .00000166  00000+0  80174-4 0  9994",
        "tle_line2": "2 42063  98.5728  48.4629 0001120  98.7287 261.4023 14.30808731456428"
      },
      "geometry": {
        "type": "Point",
        "coordinates": [
          21.536104633933036,
          71.82560739137193
        ]
      }
    },
    {
      "type": "Feature",
      "properties": {
        "norad_id": 42767,
        "name": "CARTOSAT-2E",
        "group": "resource",
        "lat": -54.375866815534174,
        "lon": 44.55471147378565,
        "alt_km": 513.2592341800519,
        "timestamp": "2025-12-02T07:10:08.766786+00:00",
        "meta_object_name": "CARTOSAT-2E",
        "meta_object_id": "2017-036C",
        "meta_epoch": "2025-12-01T20:20:47.109408",
        "meta_mean_motion": 15.19323556,
        "meta_eccentricity": 0.0002731,
        "meta_inclination": 97.4579,
        "meta_ra_of_asc_node": 33.5759,
        "meta_arg_of_pericenter": 279.1294,
        "meta_mean_anomaly": 80.9632,
        "meta_ephemeris_type": 0,
        "meta_classification_type": "U",
        "meta_norad_cat_id": 42767,
        "meta_element_set_no": 999,
        "meta_rev_at_epoch": 46818,
        "meta_bstar": 0.0002923,
        "meta_mean_motion_dot": 6.107e-05,
        "meta_mean_motion_ddot": 0,
        "tle_line1": "1 42767U 17036C   25335.84776747  .00006107  00000+0  29230-3 0  9993",
        "tle_line2": "2 42767  97.4579  33.5759 0002731 279.1294  80.9632 15.19323556468183"
      },
      "geometry": {
        "type": "Point",
        "coordinates": [
          44.55471147378565,
          -54.375866815534174
        ]
      }
    },
    {
      "type": "Feature",
      "properties": {
        "norad_id": 42920,
        "name": "FORMOSAT-5",
        "group": "resource",
        "lat": 38.097240186078,
        "lon": 44.29559896862867,
        "alt_km": 716.8358162744653,
        "timestamp": "2025-12-02T07:10:08.766797+00:00",
        "meta_object_name": "FORMOSAT-5",
        "meta_object_id": "2017-049A",
        "meta_epoch": "2025-12-01T19:24:25.612128",
        "meta_mean_motion": 14.5099417,
        "meta_eccentricity": 0.0010404,
        "meta_inclination": 98.2464,
        "meta_ra_of_asc_node": 50.344,
        "meta_arg_of_pericenter": 331.9004,
        "meta_mean_anomaly": 28.1628,
        "meta_ephemeris_type": 0,
        "meta_classification_type": "U",
        "meta_norad_cat_id": 42920,
        "meta_element_set_no": 999,
        "meta_rev_at_epoch": 43805,
        "meta_bstar": 7.5335e-05,
        "meta_mean_motion_dot": 2.54e-06,
        "meta_mean_motion_ddot": 0,
        "tle_line1": "1 42920U 17049A   25335.80862977  .00000254  00000+0  75335-4 0  9990",
        "tle_line2": "2 42920  98.2464  50.3440 0010404 331.9004  28.1628 14.50994170438054"
      },
      "geometry": {
        "type": "Point",
        "coordinates": [
          44.29559896862867,
          38.097240186078
        ]
      }
    },
    {
      "type": "Feature",
      "properties": {
        "norad_id": 42969,
        "name": "SENTINEL-5P",
        "group": "resource",
        "lat": 4.37262275028832,
        "lon": 95.65297346708546,
        "alt_km": 829.3394064628183,
        "timestamp": "2025-12-02T07:10:08.766807+00:00",
        "meta_object_name": "SENTINEL-5P",
        "meta_object_id": "2017-064A",
        "meta_epoch": "2025-12-01T20:11:42.823104",
        "meta_mean_motion": 14.19512886,
        "meta_eccentricity": 9.44e-05,
        "meta_inclination": 98.7767,
        "meta_ra_of_asc_node": 274.5231,
        "meta_arg_of_pericenter": 85.4456,
        "meta_mean_anomaly": 274.6828,
        "meta_ephemeris_type": 0,
        "meta_classification_type": "U",
        "meta_norad_cat_id": 42969,
        "meta_element_set_no": 999,
        "meta_rev_at_epoch": 42156,
        "meta_bstar": 6.371e-05,
        "meta_mean_motion_dot": 9e-07,
        "meta_mean_motion_ddot": 0,
        "tle_line1": "1 42969U 17064A   25335.84146786  .00000090  00000+0  63710-4 0  9999",
        "tle_line2": "2 42969  98.7767 274.5231 0000944  85.4456 274.6828 14.19512886421569"
      },
      "geometry": {
        "type": "Point",
        "coordinates": [
          95.65297346708546,
          4.37262275028832
        ]
      }
    },
    {
      "type": "Feature",
      "properties": {
        "norad_id": 42987,
        "name": "SKYSAT-C11",
        "group": "resource",
        "lat": -0.9685696779104211,
        "lon": -66.5888535854436,
        "alt_km": 429.15149170089717,
        "timestamp": "2025-12-02T07:10:08.766818+00:00",
        "meta_object_name": "SKYSAT-C11",
        "meta_object_id": "2017-068A",
        "meta_epoch": "2025-12-01T14:51:47.773152",
        "meta_mean_motion": 15.46744844,
        "meta_eccentricity": 8.852e-05,
        "meta_inclination": 97.4131,
        "meta_ra_of_asc_node": 112.842,
        "meta_arg_of_pericenter": 119.3633,
        "meta_mean_anomaly": 240.7705,
        "meta_ephemeris_type": 0,
        "meta_classification_type": "U",
        "meta_norad_cat_id": 42987,
        "meta_element_set_no": 999,
        "meta_rev_at_epoch": 45259,
        "meta_bstar": 0.00045759313,
        "meta_mean_motion_dot": 0.00022842,
        "meta_mean_motion_ddot": 0,
        "tle_line1": "1 42987U 17068A   25335.61930293  .00022842  00000+0  45759-3 0  9993",
        "tle_line2": "2 42987  97.4131 112.8420 0000885 119.3633 240.7705 15.46744844452599"
      },
      "geometry": {
        "type": "Point",
        "coordinates": [
          -66.5888535854436,
          -0.9685696779104211
        ]
      }
    }
  ]
}